start=new Date('2022-08-31T00:00:00.000Z').valueOf();
sats=[{"OBJECT_ID":"2021-005Y","OBJECT_NAME":"STARLINK-2088","ARG_OF_PERICENTER":"80.4075","PERIOD":"95.593","CLASSIFICATION_TYPE":"U","TLE_LINE2":"2 47371  53.0556  78.5609 0001473  80.4075 279.7080 15.06393336 89089","SITE":"AFETR","COUNTRY_CODE":"US","OBJECT_TYPE":"PAYLOAD","MEAN_ANOMALY":"279.7080","PERIAPSIS":"546.214","LAUNCH_DATE":"2021-01-20","MEAN_MOTION_DOT":"0.00000151","RCS_SIZE":"LARGE","TIME_SYSTEM":"UTC","REV_AT_EPOCH":"8908","MEAN_MOTION":"15.06393336","ECCENTRICITY":"0.00014730","REF_FRAME":"TEME","TLE_LINE1":"1 47371U 21005Y   22242.83158036  .00000151  00000-0  29031-4 0  9992","APOAPSIS":"548.254","EPOCH":"2022-08-30T19:57:28.543104","SEMIMAJOR_AXIS":"6925.369","MEAN_MOTION_DDOT":"0.0000000000000","GP_ID":"211359095","EPHEMERIS_TYPE":"0","CENTER_NAME":"EARTH","RA_OF_ASC_NODE":"78.5609","MEAN_ELEMENT_THEORY":"SGP4","FILE":"3552179","DECAY_DATE":null,"ELEMENT_SET_NO":"999","INCLINATION":"53.0556","NORAD_CAT_ID":"47371","BSTAR":"0.00002903100000"},{"LAUNCH_DATE":"2021-01-20","PERIAPSIS":"546.207","MEAN_MOTION_DOT":"0.00000480","RCS_SIZE":"LARGE","MEAN_ANOMALY":"280.7135","OBJECT_TYPE":"PAYLOAD","COUNTRY_CODE":"US","SITE":"AFETR","TLE_LINE2":"2 47372  53.0562  73.8958 0001472  79.4020 280.7135 15.06395730 89149","CLASSIFICATION_TYPE":"U","OBJECT_NAME":"STARLINK-2089","OBJECT_ID":"2021-005Z","ARG_OF_PERICENTER":"79.4020","PERIOD":"95.592","ECCENTRICITY":"0.00014720","MEAN_MOTION":"15.06395730","REV_AT_EPOCH":"8914","TIME_SYSTEM":"UTC","SEMIMAJOR_AXIS":"6925.362","EPOCH":"2022-08-30T19:50:13.881120","APOAPSIS":"548.246","TLE_LINE1":"1 47372U 21005Z   22242.82654955  .00000480  00000-0  51120-4 0  9992","REF_FRAME":"TEME","NORAD_CAT_ID":"47372","BSTAR":"0.00005112000000","INCLINATION":"53.0562","FILE":"3552179","DECAY_DATE":null,"ELEMENT_SET_NO":"999","MEAN_ELEMENT_THEORY":"SGP4","RA_OF_ASC_NODE":"73.8958","CENTER_NAME":"EARTH","GP_ID":"211360347","MEAN_MOTION_DDOT":"0.0000000000000","EPHEMERIS_TYPE":"0"},{"MEAN_MOTION":"15.06392607","ECCENTRICITY":"0.00015270","TIME_SYSTEM":"UTC","REV_AT_EPOCH":"8908","OBJECT_TYPE":"PAYLOAD","COUNTRY_CODE":"US","MEAN_MOTION_DOT":"-0.00001324","LAUNCH_DATE":"2021-01-20","PERIAPSIS":"546.179","RCS_SIZE":"LARGE","MEAN_ANOMALY":"274.7292","CLASSIFICATION_TYPE":"U","OBJECT_NAME":"STARLINK-2092","OBJECT_ID":"2021-005AA","PERIOD":"95.593","ARG_OF_PERICENTER":"85.3871","SITE":"AFETR","TLE_LINE2":"2 47373  53.0548  78.5594 0001527  85.3871 274.7292 15.06392607 89083","DECAY_DATE":null,"FILE":"3552179","ELEMENT_SET_NO":"999","BSTAR":"-0.00007000300000","NORAD_CAT_ID":"47373","INCLINATION":"53.0548","CENTER_NAME":"EARTH","MEAN_MOTION_DDOT":"0.0000000000000","GP_ID":"211360097","EPHEMERIS_TYPE":"0","RA_OF_ASC_NODE":"78.5594","MEAN_ELEMENT_THEORY":"SGP4","APOAPSIS":"548.294","SEMIMAJOR_AXIS":"6925.371","EPOCH":"2022-08-30T19:52:10.009632","REF_FRAME":"TEME","TLE_LINE1":"1 47373U 21005AA  22242.82789363 -.00001324  00000-0 -70003-4 0  9996"},{"MEAN_ANOMALY":"270.9820","MEAN_MOTION_DOT":"0.00000439","LAUNCH_DATE":"2021-01-20","PERIAPSIS":"546.290","RCS_SIZE":"LARGE","COUNTRY_CODE":"US","OBJECT_TYPE":"PAYLOAD","TLE_LINE2":"2 47374  53.0550  78.7556 0001331  89.1322 270.9820 15.06400527 89078","SITE":"AFETR","OBJECT_NAME":"STARLINK-2093","OBJECT_ID":"2021-005AB","PERIOD":"95.592","ARG_OF_PERICENTER":"89.1322","CLASSIFICATION_TYPE":"U","ECCENTRICITY":"0.00013310","MEAN_MOTION":"15.06400527","REV_AT_EPOCH":"8907","TIME_SYSTEM":"UTC","EPOCH":"2022-08-30T18:47:06.185472","SEMIMAJOR_AXIS":"6925.347","APOAPSIS":"548.134","TLE_LINE1":"1 47374U 21005AB  22242.78271048  .00000439  00000-0  48369-4 0  9992","REF_FRAME":"TEME","INCLINATION":"53.0550","NORAD_CAT_ID":"47374","BSTAR":"0.00004836900000","FILE":"3552179","DECAY_DATE":null,"ELEMENT_SET_NO":"999","RA_OF_ASC_NODE":"78.7556","MEAN_ELEMENT_THEORY":"SGP4","MEAN_MOTION_DDOT":"0.0000000000000","GP_ID":"211358845","EPHEMERIS_TYPE":"0","CENTER_NAME":"EARTH"},{"MEAN_ELEMENT_THEORY":"SGP4","RA_OF_ASC_NODE":"78.4491","CENTER_NAME":"EARTH","EPHEMERIS_TYPE":"0","MEAN_MOTION_DDOT":"0.0000000000000","GP_ID":"211359596","BSTAR":"0.00005245500000","NORAD_CAT_ID":"47375","INCLINATION":"53.0541","ELEMENT_SET_NO":"999","FILE":"3552179","DECAY_DATE":null,"TLE_LINE1":"1 47375U 21005AC  22242.85369441  .00000500  00000-0  52455-4 0  9996","REF_FRAME":"TEME","SEMIMAJOR_AXIS":"6925.359","EPOCH":"2022-08-30T20:29:19.197024","APOAPSIS":"548.186","REV_AT_EPOCH":"8908","TIME_SYSTEM":"UTC","ECCENTRICITY":"0.00013880","MEAN_MOTION":"15.06396458","SITE":"AFETR","TLE_LINE2":"2 47375  53.0541  78.4491 0001388  84.5803 275.5345 15.06396458 89080","CLASSIFICATION_TYPE":"U","PERIOD":"95.592","ARG_OF_PERICENTER":"84.5803","OBJECT_ID":"2021-005AC","OBJECT_NAME":"STARLINK-2094","RCS_SIZE":"LARGE","LAUNCH_DATE":"2021-01-20","PERIAPSIS":"546.263","MEAN_MOTION_DOT":"0.00000500","MEAN_ANOMALY":"275.5345","OBJECT_TYPE":"PAYLOAD","COUNTRY_CODE":"US"},{"TLE_LINE1":"1 47376U 21005AD  22242.85738696  .00000269  00000-0  36989-4 0  9995","REF_FRAME":"TEME","SEMIMAJOR_AXIS":"6925.383","EPOCH":"2022-08-30T20:34:38.233344","APOAPSIS":"548.306","MEAN_ELEMENT_THEORY":"SGP4","RA_OF_ASC_NODE":"78.4347","CENTER_NAME":"EARTH","MEAN_MOTION_DDOT":"0.0000000000000","GP_ID":"211359847","EPHEMERIS_TYPE":"0","BSTAR":"0.00003698900000","NORAD_CAT_ID":"47376","INCLINATION":"53.0547","FILE":"3552179","DECAY_DATE":null,"ELEMENT_SET_NO":"999","SITE":"AFETR","TLE_LINE2":"2 47376  53.0547  78.4347 0001528  79.9869 280.1292 15.06388764 89087","CLASSIFICATION_TYPE":"U","OBJECT_ID":"2021-005AD","OBJECT_NAME":"STARLINK-2096","PERIOD":"95.593","ARG_OF_PERICENTER":"79.9869","LAUNCH_DATE":"2021-01-20","MEAN_MOTION_DOT":"0.00000269","PERIAPSIS":"546.190","RCS_SIZE":"LARGE","MEAN_ANOMALY":"280.1292","OBJECT_TYPE":"PAYLOAD","COUNTRY_CODE":"US","REV_AT_EPOCH":"8908","TIME_SYSTEM":"UTC","ECCENTRICITY":"0.00015280","MEAN_MOTION":"15.06388764"},{"OBJECT_ID":"2021-005AE","OBJECT_NAME":"STARLINK-2097","ARG_OF_PERICENTER":"94.2626","PERIOD":"95.593","CLASSIFICATION_TYPE":"U","TLE_LINE2":"2 47377  53.0541  78.8023 0001388  94.2626 265.8522 15.06393897 89070","SITE":"AFETR","COUNTRY_CODE":"US","OBJECT_TYPE":"PAYLOAD","MEAN_ANOMALY":"265.8522","LAUNCH_DATE":"2021-01-20","PERIAPSIS":"546.271","MEAN_MOTION_DOT":"-0.00000715","RCS_SIZE":"LARGE","TIME_SYSTEM":"UTC","REV_AT_EPOCH":"8907","MEAN_MOTION":"15.06393897","ECCENTRICITY":"0.00013880","REF_FRAME":"TEME","TLE_LINE1":"1 47377U 21005AE  22242.77629516 -.00000715  00000-0 -29089-4 0  9998","APOAPSIS":"548.194","EPOCH":"2022-08-30T18:37:51.901824","SEMIMAJOR_AXIS":"6925.367","MEAN_MOTION_DDOT":"0.0000000000000","GP_ID":"211360598","EPHEMERIS_TYPE":"0","CENTER_NAME":"EARTH","RA_OF_ASC_NODE":"78.8023","MEAN_ELEMENT_THEORY":"SGP4","FILE":"3552179","DECAY_DATE":null,"ELEMENT_SET_NO":"999","INCLINATION":"53.0541","BSTAR":"-0.00002908900000","NORAD_CAT_ID":"47377"},{"MEAN_ANOMALY":"272.0452","RCS_SIZE":"LARGE","MEAN_MOTION_DOT":"0.00000561","LAUNCH_DATE":"2021-01-20","PERIAPSIS":"546.223","COUNTRY_CODE":"US","OBJECT_TYPE":"PAYLOAD","TLE_LINE2":"2 47378  53.0564  38.2476 0001433  88.0701 272.0452 15.06399295 89658","SITE":"AFETR","PERIOD":"95.592","ARG_OF_PERICENTER":"88.0701","OBJECT_ID":"2021-005AF","OBJECT_NAME":"STARLINK-2098","CLASSIFICATION_TYPE":"U","ECCENTRICITY":"0.00014330","MEAN_MOTION":"15.06399295","REV_AT_EPOCH":"8965","TIME_SYSTEM":"UTC","EPOCH":"2022-08-30T21:38:19.251744","SEMIMAJOR_AXIS":"6925.351","APOAPSIS":"548.208","TLE_LINE1":"1 47378U 21005AF  22242.90161171  .00000561  00000-0  56580-4 0  9995","REF_FRAME":"TEME","INCLINATION":"53.0564","BSTAR":"0.00005658000000","NORAD_CAT_ID":"47378","ELEMENT_SET_NO":"999","DECAY_DATE":null,"FILE":"3552179","MEAN_ELEMENT_THEORY":"SGP4","RA_OF_ASC_NODE":"38.2476","EPHEMERIS_TYPE":"0","MEAN_MOTION_DDOT":"0.0000000000000","GP_ID":"211359346","CENTER_NAME":"EARTH"},{"TIME_SYSTEM":"UTC","REV_AT_EPOCH":"8964","MEAN_MOTION":"15.06402241","ECCENTRICITY":"0.00014460","CLASSIFICATION_TYPE":"U","OBJECT_ID":"2021-005AG","OBJECT_NAME":"STARLINK-2099","ARG_OF_PERICENTER":"87.7593","PERIOD":"95.592","SITE":"AFETR","TLE_LINE2":"2 47379  53.0568  38.5124 0001446  87.7593 272.3562 15.06402241 89645","OBJECT_TYPE":"PAYLOAD","COUNTRY_CODE":"US","PERIAPSIS":"546.205","LAUNCH_DATE":"2021-01-20","MEAN_MOTION_DOT":"-0.00000597","RCS_SIZE":"LARGE","MEAN_ANOMALY":"272.3562","CENTER_NAME":"EARTH","MEAN_MOTION_DDOT":"0.0000000000000","GP_ID":"211359096","EPHEMERIS_TYPE":"0","RA_OF_ASC_NODE":"38.5124","MEAN_ELEMENT_THEORY":"SGP4","FILE":"3552179","DECAY_DATE":null,"ELEMENT_SET_NO":"999","NORAD_CAT_ID":"47379","BSTAR":"-0.00002118600000","INCLINATION":"53.0568","REF_FRAME":"TEME","TLE_LINE1":"1 47379U 21005AG  22242.84263619 -.00000597  00000-0 -21186-4 0  9994","APOAPSIS":"548.208","SEMIMAJOR_AXIS":"6925.342","EPOCH":"2022-08-30T20:13:23.766816"},{"SITE":"AFETR","TLE_LINE2":"2 47380  53.0571  48.9578 0001409  86.0492 274.0658 15.06398539 89490","CLASSIFICATION_TYPE":"U","PERIOD":"95.592","ARG_OF_PERICENTER":"86.0492","OBJECT_ID":"2021-005AH","OBJECT_NAME":"STARLINK-2100","RCS_SIZE":"LARGE","PERIAPSIS":"546.242","LAUNCH_DATE":"2021-01-20","MEAN_MOTION_DOT":"0.00000353","MEAN_ANOMALY":"274.0658","OBJECT_TYPE":"PAYLOAD","COUNTRY_CODE":"US","REV_AT_EPOCH":"8949","TIME_SYSTEM":"UTC","ECCENTRICITY":"0.00014090","MEAN_MOTION":"15.06398539","TLE_LINE1":"1 47380U 21005AH  22242.73850609  .00000353  00000-0  42575-4 0  9998","REF_FRAME":"TEME","SEMIMAJOR_AXIS":"6925.353","EPOCH":"2022-08-30T17:43:26.926176","APOAPSIS":"548.194","MEAN_ELEMENT_THEORY":"SGP4","RA_OF_ASC_NODE":"48.9578","CENTER_NAME":"EARTH","EPHEMERIS_TYPE":"0","GP_ID":"211360348","MEAN_MOTION_DDOT":"0.0000000000000","BSTAR":"0.00004257500000","NORAD_CAT_ID":"47380","INCLINATION":"53.0571","ELEMENT_SET_NO":"999","FILE":"3552179","DECAY_DATE":null}];
